0 COSMOS 292 DEB *
1 18912U 69070D   13282.20029057  .00040430  00000-0  13938-2 0  8316
2 18912 073.9767 223.0270 0008248 094.5579 331.1438 15.29781143433711
0 COSMOS 292 DEB *
1 18912U 69070D   13283.49631095  .00083604  00000-0  28826-2 0  8333
2 18912 073.9753 220.2580 0008373 090.4648 269.8027 15.29872677433916
0 COSMOS 292 DEB *
1 18912U 69070D   13283.51869331  .00037699  00000-0  12965-2 0  8321
2 18912 073.9761 220.2113 0008139 091.5654 031.9187 15.29875665433911
0 COSMOS 292 DEB *
1 18912U 69070D   13284.16169159  .00035240  00000-0  12113-2 0  8330
2 18912 073.9761 218.8381 0008163 090.0361 333.2929 15.29906492434014
0 COSMOS 292 DEB *
1 18912U 69070D   13287.16996678  .00031382  00000-0  10739-2 0  8354
2 18912 073.9760 212.4110 0008240 083.3944 342.2360 15.30073917434479
0 COSMOS 292 DEB *
1 18912U 69070D   13288.48725932  .00045191  00000-0  15378-2 0  8361
2 18912 073.9768 209.5970 0008062 080.5107 038.2047 15.30179606434678
0 COSMOS 292 DEB *
1 18912U 69070D   13290.11136693  .00039419  00000-0  13380-2 0  8372
2 18912 073.9775 206.1269 0008131 075.7333 346.0815 15.30291708434923
0 COSMOS 292 DEB *
1 18912U 69070D   13292.13923704  .00034098  00000-0  11535-2 0  8382
2 18912 073.9768 201.7928 0008423 075.1579 353.9895 15.30429493435232
0 COSMOS 292 DEB *
1 18912U 69070D   13293.52287162  .00036883  00000-0  12439-2 0  8396
2 18912 073.9762 198.8341 0008301 070.3230 058.9341 15.30513448435442
0 COSMOS 292 DEB *
1 18912U 69070D   13295.07926219  .00037893  00000-0  12739-2 0  8408
2 18912 073.9758 195.5074 0008071 064.5300 356.7949 15.30612348435689
0 COSMOS 292 DEB *
1 18912U 69070D   13296.12642628  .00040211  00000-0  13482-2 0  8419
2 18912 073.9756 193.2685 0008081 061.0578 007.9898 15.30686145435842
